{
  "links" : {
    "next" : "https://api.nasa.gov/neo/rest/v1/feed?start_date=2012-02-23&end_date=2012-02-23&detailed=true&api_key=t0TVs3DtDT2H8Oy2Zy8m2eVrNsAVKAexjcZXUckd",
    "prev" : "https://api.nasa.gov/neo/rest/v1/feed?start_date=2012-02-21&end_date=2012-02-21&detailed=true&api_key=t0TVs3DtDT2H8Oy2Zy8m2eVrNsAVKAexjcZXUckd",
    "self" : "https://api.nasa.gov/neo/rest/v1/feed?start_date=2012-02-22&end_date=2012-02-22&detailed=true&api_key=t0TVs3DtDT2H8Oy2Zy8m2eVrNsAVKAexjcZXUckd"
  },
  "element_count" : 6,
  "near_earth_objects" : {
    "2012-02-22" : [ {
      "links" : {
        "self" : "https://api.nasa.gov/neo/rest/v1/neo/3599405?api_key=t0TVs3DtDT2H8Oy2Zy8m2eVrNsAVKAexjcZXUckd"
      },
      "neo_reference_id" : "3599405",
      "name" : "(2012 DZ)",
      "nasa_jpl_url" : "http://ssd.jpl.nasa.gov/sbdb.cgi?sstr=3599405",
      "absolute_magnitude_h" : 26.1,
      "estimated_diameter" : {
        "kilometers" : {
          "estimated_diameter_min" : 0.0160160338,
          "estimated_diameter_max" : 0.0358129403
        },
        "meters" : {
          "estimated_diameter_min" : 16.0160337979,
          "estimated_diameter_max" : 35.8129403019
        },
        "miles" : {
          "estimated_diameter_min" : 0.0099518989,
          "estimated_diameter_max" : 0.0222531225
        },
        "feet" : {
          "estimated_diameter_min" : 52.5460443254,
          "estimated_diameter_max" : 117.4965270602
        }
      },
      "is_potentially_hazardous_asteroid" : false,
      "close_approach_data" : [ {
        "close_approach_date" : "2012-02-22",
        "epoch_date_close_approach" : 1329897600000,
        "relative_velocity" : {
          "kilometers_per_second" : "16.4892679144",
          "kilometers_per_hour" : "59361.3644916992",
          "miles_per_hour" : "36884.8433976339"
        },
        "miss_distance" : {
          "astronomical" : "0.0064910444",
          "lunar" : "2.5250163078",
          "kilometers" : "971046.4375",
          "miles" : "603380.3125"
        },
        "orbiting_body" : "Earth"
      } ],
      "orbital_data" : {
        "orbit_id" : "7",
        "orbit_determination_date" : "2017-04-06 08:50:55",
        "orbit_uncertainty" : "8",
        "minimum_orbit_intersection" : ".00255107",
        "jupiter_tisserand_invariant" : "3.349",
        "epoch_osculation" : "2455977.5",
        "eccentricity" : ".6503951805968698",
        "semi_major_axis" : "2.204810769891749",
        "inclination" : "1.317792774146583",
        "ascending_node_longitude" : "327.5894017638805",
        "orbital_period" : "1195.7913549393",
        "perihelion_distance" : ".7708124710260813",
        "perihelion_argument" : "250.4142231250631",
        "aphelion_distance" : "3.638809068757417",
        "perihelion_time" : "2456021.387154537734",
        "mean_anomaly" : "346.7875147547072",
        "mean_motion" : ".3010558643972419",
        "equinox" : "J2000"
      }
    }, {
      "links" : {
        "self" : "https://api.nasa.gov/neo/rest/v1/neo/3600106?api_key=t0TVs3DtDT2H8Oy2Zy8m2eVrNsAVKAexjcZXUckd"
      },
      "neo_reference_id" : "3600106",
      "name" : "(2012 DJ54)",
      "nasa_jpl_url" : "http://ssd.jpl.nasa.gov/sbdb.cgi?sstr=3600106",
      "absolute_magnitude_h" : 28.6,
      "estimated_diameter" : {
        "kilometers" : {
          "estimated_diameter_min" : 0.0050647146,
          "estimated_diameter_max" : 0.0113250461
        },
        "meters" : {
          "estimated_diameter_min" : 5.0647145883,
          "estimated_diameter_max" : 11.3250461062
        },
        "miles" : {
          "estimated_diameter_min" : 0.0031470668,
          "estimated_diameter_max" : 0.0070370552
        },
        "feet" : {
          "estimated_diameter_min" : 16.61651821,
          "estimated_diameter_max" : 37.155664267
        }
      },
      "is_potentially_hazardous_asteroid" : false,
      "close_approach_data" : [ {
        "close_approach_date" : "2012-02-22",
        "epoch_date_close_approach" : 1329897600000,
        "relative_velocity" : {
          "kilometers_per_second" : "5.4493312804",
          "kilometers_per_hour" : "19617.5926094791",
          "miles_per_hour" : "12189.6091411511"
        },
        "miss_distance" : {
          "astronomical" : "0.003810283",
          "lunar" : "1.4822001457",
          "kilometers" : "570010.25",
          "miles" : "354187.9375"
        },
        "orbiting_body" : "Earth"
      } ],
      "orbital_data" : {
        "orbit_id" : "8",
        "orbit_determination_date" : "2017-04-06 08:50:42",
        "orbit_uncertainty" : "6",
        "minimum_orbit_intersection" : ".00220111",
        "jupiter_tisserand_invariant" : "5.349",
        "epoch_osculation" : "2458000.5",
        "eccentricity" : ".2299595839786057",
        "semi_major_axis" : "1.176188921427005",
        "inclination" : "1.990548431564578",
        "ascending_node_longitude" : "336.8735046974825",
        "orbital_period" : "465.9228968858448",
        "perihelion_distance" : ".905713006375406",
        "perihelion_argument" : "120.0623447551711",
        "aphelion_distance" : "1.446664836478604",
        "perihelion_time" : "2457796.516096800219",
        "mean_anomaly" : "157.6102089911095",
        "mean_motion" : ".772660031104252",
        "equinox" : "J2000"
      }
    }, {
      "links" : {
        "self" : "https://api.nasa.gov/neo/rest/v1/neo/3599304?api_key=t0TVs3DtDT2H8Oy2Zy8m2eVrNsAVKAexjcZXUckd"
      },
      "neo_reference_id" : "3599304",
      "name" : "(2012 CR45)",
      "nasa_jpl_url" : "http://ssd.jpl.nasa.gov/sbdb.cgi?sstr=3599304",
      "absolute_magnitude_h" : 25.5,
      "estimated_diameter" : {
        "kilometers" : {
          "estimated_diameter_min" : 0.0211132445,
          "estimated_diameter_max" : 0.0472106499
        },
        "meters" : {
          "estimated_diameter_min" : 21.113244479,
          "estimated_diameter_max" : 47.2106498806
        },
        "miles" : {
          "estimated_diameter_min" : 0.0131191578,
          "estimated_diameter_max" : 0.0293353287
        },
        "feet" : {
          "estimated_diameter_min" : 69.2691770164,
          "estimated_diameter_max" : 154.8905885541
        }
      },
      "is_potentially_hazardous_asteroid" : false,
      "close_approach_data" : [ {
        "close_approach_date" : "2012-02-22",
        "epoch_date_close_approach" : 1329897600000,
        "relative_velocity" : {
          "kilometers_per_second" : "5.1654299452",
          "kilometers_per_hour" : "18595.5478027911",
          "miles_per_hour" : "11554.5502444621"
        },
        "miss_distance" : {
          "astronomical" : "0.0406690784",
          "lunar" : "15.8202724457",
          "kilometers" : "6084008",
          "miles" : "3780427.25"
        },
        "orbiting_body" : "Earth"
      } ],
      "orbital_data" : {
        "orbit_id" : "9",
        "orbit_determination_date" : "2017-04-06 08:50:58",
        "orbit_uncertainty" : "7",
        "minimum_orbit_intersection" : ".0304996",
        "jupiter_tisserand_invariant" : "4.407",
        "epoch_osculation" : "2458000.5",
        "eccentricity" : ".3376835052378798",
        "semi_major_axis" : "1.536862605259062",
        "inclination" : "3.668785873143637",
        "ascending_node_longitude" : "152.4984165917227",
        "orbital_period" : "695.9066589428795",
        "perihelion_distance" : "1.017889453646162",
        "perihelion_argument" : "12.77296990834342",
        "aphelion_distance" : "2.055835756871962",
        "perihelion_time" : "2458077.594173612455",
        "mean_anomaly" : "320.1183547479725",
        "mean_motion" : ".5173107562253533",
        "equinox" : "J2000"
      }
    } ]
  }
}